OBJECT_NAME,OBJECT_ID,EPOCH,MEAN_MOTION,ECCENTRICITY,INCLINATION,RA_OF_ASC_NODE,ARG_OF_PERICENTER,MEAN_ANOMALY,EPHEMERIS_TYPE,CLASSIFICATION_TYPE,NORAD_CAT_ID,ELEMENT_SET_NO,REV_AT_EPOCH,BSTAR,MEAN_MOTION_DOT,MEAN_MOTION_DDOT
PROBA-1,2001-049B,2026-06-14T21:06:59.241312,15.07486788,.0056303,97.9598,174.3313,129.5131,231.1093,0,U,26958,999,34327,.81995E-4,.1217E-4,0
CUTE-1 (CO-55),2003-031E,2026-06-14T13:53:01.885056,14.24334256,.0009356,98.6736,174.1701,185.5498,174.5579,0,U,27844,999,19130,.12698E-3,.25E-5,0
CUBESAT XI-IV (CO-57),2003-031J,2026-06-14T18:38:09.009888,14.23619629,.0008869,98.6767,174.0803,204.4357,155.6402,0,U,27848,999,19103,.10839E-3,.203E-5,0
APRIZESAT 4,2009-041D,2026-06-14T18:17:23.199648,14.83876430,.0042551,98.1413,241.0342,331.0837,28.8019,0,U,35684,999,91100,.72889E-4,.555E-5,0
APRIZESAT 3,2009-041F,2026-06-14T16:35:42.791136,14.96233852,.0062756,98.2056,318.7958,75.7848,285.0332,0,U,35686,999,91600,.12965E-3,.1453E-4,0
PROBA-2,2009-059B,2026-06-14T18:20:57.356736,14.54861503,.0012014,98.2449,349.1509,290.4179,69.5728,0,U,36037,999,88117,.48291E-4,.162E-5,0
APRIZESAT 5,2011-044E,2026-06-14T18:40:01.452576,14.81071351,.005254,98.2454,98.7499,12.0472,348.1983,0,U,37792,999,79843,.13368E-3,.1002E-4,0
APRIZESAT 6,2011-044F,2026-06-14T14:00:09.070848,14.76912301,.0044486,98.2367,76.0299,94.1121,26.1938,0,U,37793,999,79676,.1022E-3,.674E-5,0
PROBA-V,2013-021A,2026-06-14T20:52:51.707424,14.23596550,.0005048,98.3582,144.5910,128.8646,231.2984,0,U,39159,999,68078,.42162E-4,.55E-6,0
APRIZESAT 7,2013-066A,2026-06-14T20:57:11.716992,14.91559558,.0034816,97.7709,119.1262,217.0937,142.7875,0,U,39416,999,68088,.10854E-3,.1042E-4,0
APRIZESAT 8,2013-066K,2026-06-14T20:30:34.484256,14.87648919,.00445,97.8221,113.3550,294.5060,65.1520,0,U,39425,999,67932,.99745E-4,.866E-5,0
BUGSAT-1 (TITA),2014-033E,2026-06-14T20:34:45.196320,15.15565990,.0027796,98.0433,258.2694,186.4519,173.6358,0,U,40014,999,65548,.34362E-3,.6507E-4,0
SAUDISAT 4,2014-033G,2026-06-14T09:55:41.176128,14.79541441,.0046219,97.7579,311.6443,82.7448,277.9015,0,U,40016,999,64566,.88181893E-4,.62E-5,0
APRIZESAT 9,2014-033J,2026-06-14T19:58:04.786176,14.74211671,.0065511,97.9058,299.0882,206.7978,152.9841,0,U,40018,999,64321,.96279E-4,.605E-5,0
APRIZESAT 10,2014-033K,2026-06-14T19:31:45.407136,14.70880586,.0077416,97.9646,292.8261,281.5638,77.6885,0,U,40019,999,64190,.64897E-4,.362E-5,0
TECHDEMOSAT-1 (TDS-1),2014-037H,2026-06-14T17:05:14.575200,15.13261799,.0004502,98.3808,157.6797,277.3752,82.6964,0,U,40076,999,64785,.42625E-3,.7507E-4,0
TECHNOSAT,2017-042E,2026-06-14T17:20:39.655680,15.04945225,.0018822,97.4273,323.4740,101.9934,258.3404,0,U,42829,999,48633,.27556E-3,.386E-4,0
FLYING LAPTOP,2017-042G,2026-06-14T20:27:35.536032,15.01133419,.0019511,97.4671,321.4751,129.3189,230.9769,0,U,42831,999,48610,.26239E-3,.3316E-4,0
HAWK-A,2018-099H,2026-06-14T15:46:23.204064,15.24617071,.0033182,97.3916,217.9259,295.2793,64.5007,0,U,43765,999,41271,.22831E-3,.5645E-4,0
HAWK-B,2018-099AN,2026-06-14T14:38:26.545344,15.22801465,.0030635,97.3966,217.2998,314.4153,45.4577,0,U,43794,999,41264,.24224E-3,.5663E-4,0
HAWK-C,2018-099AT,2026-06-14T15:20:50.769600,15.28072042,.0038823,97.3895,218.8079,295.2357,64.4860,0,U,43799,999,41352,.25278E-3,.6998E-4,0
SALSAT,2020-068K,2026-06-14T12:41:54.564000,15.29765944,.0008235,97.8843,168.4319,319.4661,40.5964,0,U,46495,999,31495,.24454E-3,.6973E-4,0
HAWK-2C,2021-006CT,2026-06-14T14:37:25.296384,15.34635735,.0006396,97.2278,209.9704,194.7984,165.3073,0,U,47502,999,29910,.18428E-3,.611E-4,0
HAWK-2A,2021-006CW,2026-06-14T14:41:02.817888,15.34650596,.0005806,97.2322,210.6492,198.0220,162.0819,0,U,47505,999,29910,.18363E-3,.609E-4,0
HAWK-2B,2021-006CZ,2026-06-14T14:34:49.598400,15.34735684,.0006409,97.2192,208.9807,196.1106,163.9935,0,U,47508,999,29910,.208E-3,.6929E-4,0
HAWK-3B,2021-059BE,2026-06-14T12:27:12.939264,15.69359053,.00034099,97.6651,1.9752,345.6510,14.4653,0,U,48931,999,27743,.36228035E-3,.42363E-3,0
HAWK-3C,2021-059BX,2026-06-14T20:05:50.324928,15.69385180,.0003678,97.6774,8.0058,344.6043,15.5106,0,U,48948,999,27748,.33788E-3,.39532E-3,0
HAWK-3A,2021-059CG,2026-06-14T12:26:35.456352,15.69365612,.00038247,97.6716,4.8635,348.3770,11.7402,0,U,48957,999,27743,.35200081E-3,.41166E-3,0
HAWK-5C,2022-057Y,2026-06-14T17:19:44.765760,15.51315301,.0005166,97.6588,325.2300,90.3656,269.8187,0,U,52754,999,22596,.29467E-3,.17219E-3,0
HAWK-5B,2022-057AA,2026-06-14T09:35:06.244512,15.51306746,.00058446,97.6596,323.2356,84.3192,275.8726,0,U,52756,999,22591,.3154615E-3,.18441E-3,0
HAWK-5A,2022-057AB,2026-06-14T09:34:47.916480,15.51304227,.00057729,97.6594,324.0669,87.3880,272.8032,0,U,52757,999,22591,.31611725E-3,.18478E-3,0
