PROBA-1                 
1 26958U 01049B   26165.87985233  .00001217  00000+0  81995-4 0  9995
2 26958  97.9598 174.3313 0056303 129.5131 231.1093 15.07486788343272
CUTE-1 (CO-55)          
1 27844U 03031E   26165.57849404  .00000250  00000+0  12698-3 0  9998
2 27844  98.6736 174.1701 0009356 185.5498 174.5579 14.24334256191306
CUBESAT XI-IV (CO-57)   
1 27848U 03031J   26165.77649317  .00000203  00000+0  10839-3 0  9998
2 27848  98.6767 174.0803 0008869 204.4357 155.6402 14.23619629191033
APRIZESAT 4             
1 35684U 09041D   26165.76207407  .00000555  00000+0  72889-4 0  9995
2 35684  98.1413 241.0342 0042551 331.0837  28.8019 14.83876430911005
APRIZESAT 3             
1 35686U 09041F   26165.69146749  .00001453  00000+0  12965-3 0  9996
2 35686  98.2056 318.7958 0062756  75.7848 285.0332 14.96233852916008
PROBA-2                 
1 36037U 09059B   26165.76455274  .00000162  00000+0  48291-4 0  9998
2 36037  98.2449 349.1509 0012014 290.4179  69.5728 14.54861503881177
APRIZESAT 5             
1 37792U 11044E   26165.77779459  .00001002  00000+0  13368-3 0  9999
2 37792  98.2454  98.7499 0052540  12.0472 348.1983 14.81071351798438
APRIZESAT 6             
1 37793U 11044F   26165.58343832  .00000674  00000+0  10220-3 0  9999
2 37793  98.2367  76.0299 0044486  94.1121  26.1938 14.76912301796761
PROBA-V                 
1 39159U 13021A   26165.87004291  .00000055  00000+0  42162-4 0  9993
2 39159  98.3582 144.5910 0005048 128.8646 231.2984 14.23596550680788
APRIZESAT 7             
1 39416U 13066A   26165.87305228  .00001042  00000+0  10854-3 0  9991
2 39416  97.7709 119.1262 0034816 217.0937 142.7875 14.91559558680883
APRIZESAT 8             
1 39425U 13066K   26165.85456579  .00000866  00000+0  99745-4 0  9995
2 39425  97.8221 113.3550 0044500 294.5060  65.1520 14.87648919679324
BUGSAT-1 (TITA)         
1 40014U 14033E   26165.85746755  .00006507  00000+0  34362-3 0  9995
2 40014  98.0433 258.2694 0027796 186.4519 173.6358 15.15565990655486
SAUDISAT 4              
1 40016U 14033G   26165.41367102  .00000620  00000+0  88182-4 0  9994
2 40016  97.7579 311.6443 0046219  82.7448 277.9015 14.79541441645662
APRIZESAT 9             
1 40018U 14033J   26165.83199984  .00000605  00000+0  96279-4 0  9992
2 40018  97.9058 299.0882 0065511 206.7978 152.9841 14.74211671643218
APRIZESAT 10            
1 40019U 14033K   26165.81371999  .00000362  00000+0  64897-4 0  9990
2 40019  97.9646 292.8261 0077416 281.5638  77.6885 14.70880586641903
TECHDEMOSAT-1 (TDS-1)   
1 40076U 14037H   26165.71197425  .00007507  00000+0  42625-3 0  9998
2 40076  98.3808 157.6797 0004502 277.3752  82.6964 15.13261799647850
TECHNOSAT               
1 42829U 17042E   26165.72268120  .00003860  00000+0  27556-3 0  9991
2 42829  97.4273 323.4740 0018822 101.9934 258.3404 15.04945225486337
FLYING LAPTOP           
1 42831U 17042G   26165.85249463  .00003316  00000+0  26239-3 0  9990
2 42831  97.4671 321.4751 0019511 129.3189 230.9769 15.01133419486100
HAWK-A                  
1 43765U 18099H   26165.65721301  .00005645  00000+0  22831-3 0  9995
2 43765  97.3916 217.9259 0033182 295.2793  64.5007 15.24617071412712
HAWK-B                  
1 43794U 18099AN  26165.61002946  .00005663  00000+0  24224-3 0  9998
2 43794  97.3966 217.2998 0030635 314.4153  45.4577 15.22801465412648
HAWK-C                  
1 43799U 18099AT  26165.63947650  .00006998  00000+0  25278-3 0  9997
2 43799  97.3895 218.8079 0038823 295.2357  64.4860 15.28072042413521
SALSAT                  
1 46495U 20068K   26165.52910375  .00006973  00000+0  24454-3 0  9992
2 46495  97.8843 168.4319 0008235 319.4661  40.5964 15.29765944314951
HAWK-2C                 
1 47502U 21006CT  26165.60932056  .00006110  00000+0  18428-3 0  9991
2 47502  97.2278 209.9704 0006396 194.7984 165.3073 15.34635735299100
HAWK-2A                 
1 47505U 21006CW  26165.61183817  .00006090  00000+0  18363-3 0  9993
2 47505  97.2322 210.6492 0005806 198.0220 162.0819 15.34650596299105
HAWK-2B                 
1 47508U 21006CZ  26165.60751850  .00006929  00000+0  20800-3 0  9993
2 47508  97.2192 208.9807 0006409 196.1106 163.9935 15.34735684299106
HAWK-3B                 
1 48931U 21059BE  26165.51889976  .00042363  00000+0  36228-3 0  9996
2 48931  97.6651   1.9752 0003409 345.6510  14.4653 15.69359053277437
HAWK-3C                 
1 48948U 21059BX  26165.83738802  .00039532  00000+0  33788-3 0  9992
2 48948  97.6774   8.0058 0003678 344.6043  15.5106 15.69385180277486
HAWK-3A                 
1 48957U 21059CG  26165.51846593  .00041166  00000+0  35200-3 0  9991
2 48957  97.6716   4.8635 0003824 348.3770  11.7402 15.69365612277438
HAWK-5C                 
1 52754U 22057Y   26165.72204590  .00017219  00000+0  29467-3 0  9998
2 52754  97.6588 325.2300 0005166  90.3656 269.8187 15.51315301225960
HAWK-5B                 
1 52756U 22057AA  26165.39937783  .00018441  00000+0  31546-3 0  9999
2 52756  97.6596 323.2356 0005844  84.3192 275.8726 15.51306746225915
HAWK-5A                 
1 52757U 22057AB  26165.39916570  .00018478  00000+0  31612-3 0  9995
2 52757  97.6594 324.0669 0005772  87.3880 272.8032 15.51304227225916
